IRIDIUM 36              
1 24967U 97056C   24208.88766148  .00000728  00000+0  23949-3 0  9995
2 24967  86.3985 309.6270 0002135  89.7412 270.4030 14.36912691405498
IRIDIUM 39              
1 25042U 97069D   24208.74291955  .00001221  00000+0  32251-3 0  9993
2 25042  86.3944 350.6186 0016685 317.7091  42.2825 14.48096763401840
IRIDIUM 38              
1 25043U 97069E   24208.88280027  .00000816  00000+0  26700-3 0  9998
2 25043  86.3974   9.9784 0003920  89.4345 270.7302 14.37358431399211
IRIDIUM 42              
1 25077U 97077A   24208.91306196  .00000769  00000+0  25981-3 0  9991
2 25077  86.3972  15.7324 0002745  93.9196 266.2315 14.35649175394517
IRIDIUM 44              
1 25078U 97077B   24209.11510821  .00000779  00000+0  24369-3 0  9997
2 25078  86.3980 358.4518 0003127  56.9266 303.2233 14.39498196396951
IRIDIUM 45              
1 25104U 97082A   24208.94094065  .00019090  00000+0  10232-2 0  9999
2 25104  86.3767 203.5728 0158695  94.6322 267.3057 15.04569488402835
IRIDIUM 24              
1 25105U 97082B   24209.43165979  .00000823  00000+0  24832-3 0  9994
2 25105  86.3905 217.8362 0013716  74.2542 286.0170 14.41285765396675
IRIDIUM 51              
1 25262U 98018A   24209.41296434  .00024271  00000+0  10647-2 0  9998
2 25262  86.3956 213.0415 0141269  35.8046 325.2561 15.13181227397713
